{
    "links": {
        "self": "http://www.neowsapp.com/rest/v1/neo/3802013?api_key=iIulBulltgU6a56xZRHN4H3l9WmuAYTsLGpBGhQ2"
    },
    "id": "3802013",
    "neo_reference_id": "3802013",
    "name": "(2018 FK2)",
    "designation": "2018 FK2",
    "nasa_jpl_url": "http://ssd.jpl.nasa.gov/sbdb.cgi?sstr=3802013",
    "absolute_magnitude_h": 23.9,
    "estimated_diameter": {
        "kilometers": {
            "estimated_diameter_min": 0.04411182,
            "estimated_diameter_max": 0.0986370281
        },
        "meters": {
            "estimated_diameter_min": 44.1118199997,
            "estimated_diameter_max": 98.6370281305
        },
        "miles": {
            "estimated_diameter_min": 0.0274098057,
            "estimated_diameter_max": 0.0612901888
        },
        "feet": {
            "estimated_diameter_min": 144.7238235278,
            "estimated_diameter_max": 323.6123073718
        }
    },
    "is_potentially_hazardous_asteroid": false,
    "close_approach_data": [
        {
            "close_approach_date": "2018-03-24",
            "close_approach_date_full": "2018-Mar-24 15:58",
            "epoch_date_close_approach": 1521907080000,
            "relative_velocity": {
                "kilometers_per_second": "16.0903559222",
                "kilometers_per_hour": "57925.2813199193",
                "miles_per_hour": "35992.5171623687"
            },
            "miss_distance": {
                "astronomical": "0.1937818758",
                "lunar": "75.3811496862",
                "kilometers": "28989355.864284546",
                "miles": "18013150.4531808948"
            },
            "orbiting_body": "Earth"
        }
    ],
    "orbital_data": {
        "orbit_id": "4",
        "orbit_determination_date": "2018-04-05 06:33:41",
        "first_observation_date": "2018-03-18",
        "last_observation_date": "2018-04-05",
        "data_arc_in_days": 18,
        "observations_used": 20,
        "orbit_uncertainty": "8",
        "minimum_orbit_intersection": ".189828",
        "jupiter_tisserand_invariant": "4.049",
        "epoch_osculation": "2458196.5",
        "eccentricity": ".308824721601954",
        "semi_major_axis": "1.668762350760767",
        "inclination": "30.20949605863862",
        "ascending_node_longitude": "358.9559493134618",
        "orbital_period": "787.3904922393884",
        "perihelion_distance": "1.153407282367251",
        "perihelion_argument": "210.5894412769703",
        "aphelion_distance": "2.184117419154283",
        "perihelion_time": "2458232.776040656123",
        "mean_anomaly": "343.4143607715371",
        "mean_motion": ".4572064351147259",
        "equinox": "J2000",
        "orbit_class": {
            "orbit_class_type": "AMO",
            "orbit_class_description": "Near-Earth asteroid orbits similar to that of 1221 Amor",
            "orbit_class_range": "1.017 AU < q (perihelion) < 1.3 AU"
        }
    },
    "is_sentry_object": false
}